<?xml version='1.0' encoding='utf-8'?>
<gpx version="1.1" creator="Koethen route" xmlns="http://www.topografix.com/GPX/1/1"><metadata><name>Köthen – gegen den Uhrzeigersinn</name><desc>Rundweg nach uMap-Vorlage. Alte Post direkt zum Schloss; Ritterstraße einschließlich westlichem Durchgangspunkt.</desc></metadata><wpt lat="51.75168725" lon="11.974442100000001"><name>01. Rathaus</name><desc>Aus der ursprünglichen Stationsliste ergänzt.</desc></wpt><wpt lat="51.751311" lon="11.974432"><name>02. Springbrunnen</name><desc>Position aus deiner uMap-Vorlage.</desc></wpt><wpt lat="51.750959" lon="11.974805"><name>03. Stadtbibliothek</name><desc>Position aus deiner uMap-Vorlage.</desc></wpt><wpt lat="51.749773" lon="11.974424"><name>04. Spargasse</name><desc>Position aus deiner uMap-Vorlage.</desc></wpt><wpt lat="51.748731" lon="11.974642"><name>05. Friedenspark</name><desc>Position aus deiner uMap-Vorlage.</desc></wpt><wpt lat="51.749458" lon="11.975715"><name>06. Feuerwehr Köthen</name><desc>Position aus deiner uMap-Vorlage.</desc></wpt><wpt lat="51.75069" lon="11.979175"><name>07. Kuh aus Stein</name><desc>Position aus deiner uMap-Vorlage.</desc></wpt><wpt lat="51.75063" lon="11.980231"><name>08. Regenschirm – Bärplatz 2</name><desc>Position aus deiner uMap-Vorlage.</desc></wpt><wpt lat="51.75116" lon="11.978212"><name>09. Rausch Reisen</name><desc>Position aus deiner uMap-Vorlage.</desc></wpt><wpt lat="51.7513867" lon="11.977702"><name>10. Kugelbrunnen</name><desc>Aus der ursprünglichen Stationsliste ergänzt.</desc></wpt><wpt lat="51.753116" lon="11.978418"><name>11. Alte Post – advita Haus Am Schlosspark</name><desc>Position aus deiner uMap-Vorlage.</desc></wpt><wpt lat="51.753837" lon="11.976718"><name>12. Schloss Köthen mit Tourist-Information</name><desc>Position aus deiner uMap-Vorlage.</desc></wpt><wpt lat="51.753304" lon="11.975208"><name>13. Schlossplatz (Bushaltestelle)</name><desc>Position aus deiner uMap-Vorlage.</desc></wpt><wpt lat="51.753828" lon="11.974062"><name>14. St. Maria Himmelfahrt</name><desc>Position aus deiner uMap-Vorlage.</desc></wpt><wpt lat="51.753677999999994" lon="11.9738854"><name>15. Stiftstraße</name><desc>Aus der ursprünglichen Stationsliste ergänzt.</desc></wpt><wpt lat="51.754443" lon="11.973327"><name>16. Gartenstraße</name><desc>Position aus deiner uMap-Vorlage.</desc></wpt><wpt lat="51.753735" lon="11.972276"><name>17. Großer Plan / Kleiner Plan</name><desc>Position aus deiner uMap-Vorlage.</desc></wpt><wpt lat="51.753862" lon="11.971418"><name>18. Magdeburger Turm</name><desc>Position aus deiner uMap-Vorlage.</desc></wpt><wpt lat="51.753282" lon="11.97049"><name>19. Hahnemann-Haus</name><desc>Position aus deiner uMap-Vorlage.</desc></wpt><wpt lat="51.751348" lon="11.97098"><name>20. Bachdenkmal</name><desc>Position aus deiner uMap-Vorlage.</desc></wpt><wpt lat="51.749928" lon="11.972359"><name>21. Nah &amp; Gut</name><desc>Position aus deiner uMap-Vorlage.</desc></wpt><wpt lat="51.750673" lon="11.973357"><name>22. Halli</name><desc>Position aus deiner uMap-Vorlage. Deine Markierung liegt nördlich des Halleschen Turms; sie wurde unverändert übernommen.</desc></wpt><wpt lat="51.751321" lon="11.973373"><name>23. St. Jakob</name><desc>Position aus deiner uMap-Vorlage.</desc></wpt><wpt lat="51.7515" lon="11.976272"><name>24. Holzmarkt</name><desc>Position aus deiner uMap-Vorlage.</desc></wpt><wpt lat="51.751716" lon="11.976495"><name>25. Orangenes Ohr – HörPartner</name><desc>Position aus deiner uMap-Vorlage.</desc></wpt><wpt lat="51.752314" lon="11.976514"><name>26. Ritterstraße</name><desc>Station am östlichen Punkt. Anschließend führt die Route weiter durch den bisherigen westlichen Punkt der Ritterstraße zum Rathaus.</desc></wpt><wpt lat="51.75168725" lon="11.974442100000001"><name>27. Rathaus – Ziel</name><desc>Aus der ursprünglichen Stationsliste ergänzt.</desc></wpt><trk><name>Köthen – Rundweg gegen den Uhrzeigersinn</name><trkseg><trkpt lat="51.751545716167705" lon="11.974456140411077" /><trkpt lat="51.751544" lon="11.974411" /><trkpt lat="51.751562" lon="11.974133" /><trkpt lat="51.751562" lon="11.974133" /><trkpt lat="51.751495" lon="11.974224" /><trkpt lat="51.751291" lon="11.974303" /><trkpt lat="51.7513218" lon="11.9743058" /><trkpt lat="51.75129396404475" lon="11.97431651446178" /><trkpt lat="51.75129396404475" lon="11.97431651446178" /><trkpt lat="51.7513218" lon="11.9743058" /><trkpt lat="51.751291" lon="11.974303" /><trkpt lat="51.751091" lon="11.974381" /><trkpt lat="51.751172" lon="11.974863" /><trkpt lat="51.751137" lon="11.974875" /><trkpt lat="51.7510946" lon="11.9748842" /><trkpt lat="51.750975397849444" lon="11.974926260682782" /><trkpt lat="51.750975397849444" lon="11.974926260682782" /><trkpt lat="51.7510946" lon="11.9748842" /><trkpt lat="51.751137" lon="11.974875" /><trkpt lat="51.750612" lon="11.975048" /><trkpt lat="51.750535" lon="11.975074" /><trkpt lat="51.750263" lon="11.97427" /><trkpt lat="51.750012" lon="11.974376" /><trkpt lat="51.749907" lon="11.974397" /><trkpt lat="51.7499169" lon="11.9743947" /><trkpt lat="51.74977291398256" lon="11.97442285205229" /><trkpt lat="51.74977291398256" lon="11.97442285205229" /><trkpt lat="51.7499169" lon="11.9743947" /><trkpt lat="51.749907" lon="11.974397" /><trkpt lat="51.749484" lon="11.974454" /><trkpt lat="51.749556" lon="11.975183" /><trkpt lat="51.749326" lon="11.97529" /><trkpt lat="51.749292" lon="11.974763" /><trkpt lat="51.749201" lon="11.974691" /><trkpt lat="51.748874" lon="11.974634" /><trkpt lat="51.7488608" lon="11.974632" /><trkpt lat="51.748730928349836" lon="11.974636151741064" /><trkpt lat="51.748730928349836" lon="11.974636151741064" /><trkpt lat="51.7488608" lon="11.974632" /><trkpt lat="51.748874" lon="11.974634" /><trkpt lat="51.749201" lon="11.974691" /><trkpt lat="51.749292" lon="11.974763" /><trkpt lat="51.749326" lon="11.97529" /><trkpt lat="51.7493255" lon="11.9752898" /><trkpt lat="51.7492847" lon="11.9753091" /><trkpt lat="51.7492621" lon="11.9753198" /><trkpt lat="51.74932053604519" lon="11.97576236109749" /><trkpt lat="51.74932053604519" lon="11.97576236109749" /><trkpt lat="51.7492621" lon="11.9753198" /><trkpt lat="51.7492847" lon="11.9753091" /><trkpt lat="51.7493255" lon="11.9752898" /><trkpt lat="51.749326" lon="11.97529" /><trkpt lat="51.749556" lon="11.975183" /><trkpt lat="51.749654" lon="11.975645" /><trkpt lat="51.750069" lon="11.977574" /><trkpt lat="51.750232" lon="11.978258" /><trkpt lat="51.750396" lon="11.978846" /><trkpt lat="51.750462" lon="11.978988" /><trkpt lat="51.750592" lon="11.97919" /><trkpt lat="51.750601" lon="11.979241" /><trkpt lat="51.750716" lon="11.979296" /><trkpt lat="51.7507049" lon="11.9792877" /><trkpt lat="51.750669093464126" lon="11.979266307388402" /><trkpt lat="51.750669093464126" lon="11.979266307388402" /><trkpt lat="51.7507049" lon="11.9792877" /><trkpt lat="51.750716" lon="11.979296" /><trkpt lat="51.750853" lon="11.979404" /><trkpt lat="51.750753" lon="11.979756" /><trkpt lat="51.750616" lon="11.980139" /><trkpt lat="51.7506289" lon="11.9801096" /><trkpt lat="51.75059349077517" lon="11.980187942909948" /><trkpt lat="51.75059349077517" lon="11.980187942909948" /><trkpt lat="51.7506289" lon="11.9801096" /><trkpt lat="51.750616" lon="11.980139" /><trkpt lat="51.750753" lon="11.979756" /><trkpt lat="51.751003" lon="11.978824" /><trkpt lat="51.751088" lon="11.978313" /><trkpt lat="51.7510878" lon="11.9783129" /><trkpt lat="51.751171556650064" lon="11.978266869559585" /><trkpt lat="51.751171556650064" lon="11.978266869559585" /><trkpt lat="51.7516506" lon="11.9780036" /><trkpt lat="51.7514565" lon="11.9777314" /><trkpt lat="51.7514429" lon="11.9777248" /><trkpt lat="51.751385891073355" lon="11.977710296929061" /><trkpt lat="51.751385891073355" lon="11.977710296929061" /><trkpt lat="51.7514429" lon="11.9777248" /><trkpt lat="51.7514565" lon="11.9777314" /><trkpt lat="51.7516506" lon="11.9780036" /><trkpt lat="51.751433" lon="11.978123" /><trkpt lat="51.752351" lon="11.977628" /><trkpt lat="51.752367" lon="11.977555" /><trkpt lat="51.752345" lon="11.977373" /><trkpt lat="51.752633" lon="11.977176" /><trkpt lat="51.752687" lon="11.97711" /><trkpt lat="51.752687" lon="11.97711" /><trkpt lat="51.752822" lon="11.977097" /><trkpt lat="51.752822" lon="11.977097" /><trkpt lat="51.752833" lon="11.97721" /><trkpt lat="51.753019" lon="11.978458" /><trkpt lat="51.753026" lon="11.9784836" /><trkpt lat="51.753021765047485" lon="11.97845667502667" /><trkpt lat="51.753021765047485" lon="11.97845667502667" /><trkpt lat="51.7528952" lon="11.977652" /><trkpt lat="51.7531306" lon="11.97756" /><trkpt lat="51.753216" lon="11.977529" /><trkpt lat="51.753571" lon="11.977335" /><trkpt lat="51.753728" lon="11.976896" /><trkpt lat="51.7537281" lon="11.9768962" /><trkpt lat="51.75383936865181" lon="11.976892253446298" /><trkpt lat="51.75383936865181" lon="11.976892253446298" /><trkpt lat="51.7537281" lon="11.9768962" /><trkpt lat="51.753728" lon="11.976896" /><trkpt lat="51.753728" lon="11.975619" /><trkpt lat="51.753512" lon="11.9756" /><trkpt lat="51.753343" lon="11.975531" /><trkpt lat="51.753402" lon="11.975201" /><trkpt lat="51.753404" lon="11.97519" /><trkpt lat="51.753417" lon="11.975112" /><trkpt lat="51.753408" lon="11.975022" /><trkpt lat="51.7534076" lon="11.9750215" /><trkpt lat="51.7533071" lon="11.9751445" /><trkpt lat="51.75328641738574" lon="11.975168557399808" /><trkpt lat="51.75328641738574" lon="11.975168557399808" /><trkpt lat="51.7533071" lon="11.9751445" /><trkpt lat="51.7534076" lon="11.9750215" /><trkpt lat="51.753408" lon="11.975022" /><trkpt lat="51.753441" lon="11.974956" /><trkpt lat="51.753696" lon="11.973809" /><trkpt lat="51.753927" lon="11.973927" /><trkpt lat="51.7539431" lon="11.9739356" /><trkpt lat="51.75385399320052" lon="11.973898610962523" /><trkpt lat="51.75385399320052" lon="11.973898610962523" /><trkpt lat="51.7539431" lon="11.9739356" /><trkpt lat="51.753927" lon="11.973927" /><trkpt lat="51.753696" lon="11.973809" /><trkpt lat="51.7536959" lon="11.9738094" /><trkpt lat="51.75367801961667" lon="11.973885412040524" /><trkpt lat="51.75367801961667" lon="11.973885412040524" /><trkpt lat="51.7536959" lon="11.9738094" /><trkpt lat="51.753696" lon="11.973809" /><trkpt lat="51.753927" lon="11.973927" /><trkpt lat="51.754361" lon="11.974069" /><trkpt lat="51.75443743386965" lon="11.973325506904375" /><trkpt lat="51.75443743386965" lon="11.973325506904375" /><trkpt lat="51.754438" lon="11.97332" /><trkpt lat="51.754472" lon="11.972549" /><trkpt lat="51.753889" lon="11.972477" /><trkpt lat="51.753754" lon="11.972479" /><trkpt lat="51.7537373" lon="11.9723463" /><trkpt lat="51.75372750017311" lon="11.972278842939197" /><trkpt lat="51.75372750017311" lon="11.972278842939197" /><trkpt lat="51.753727" lon="11.9722754" /><trkpt lat="51.7536945" lon="11.9720596" /><trkpt lat="51.753695" lon="11.97206" /><trkpt lat="51.753777" lon="11.972009" /><trkpt lat="51.753797" lon="11.971881" /><trkpt lat="51.753853" lon="11.971794" /><trkpt lat="51.753879" lon="11.971706" /><trkpt lat="51.753884" lon="11.971607" /><trkpt lat="51.753867" lon="11.971494" /><trkpt lat="51.753911" lon="11.971413" /><trkpt lat="51.7539111" lon="11.9714129" /><trkpt lat="51.75388407885333" lon="11.97137591261222" /><trkpt lat="51.75388407885333" lon="11.97137591261222" /><trkpt lat="51.7538341" lon="11.9713075" /><trkpt lat="51.753834" lon="11.971308" /><trkpt lat="51.753956" lon="11.971118" /><trkpt lat="51.753882" lon="11.97101" /><trkpt lat="51.753414" lon="11.970461" /><trkpt lat="51.753293" lon="11.970315" /><trkpt lat="51.7532932" lon="11.9703152" /><trkpt lat="51.75333794913259" lon="11.970369344918511" /><trkpt lat="51.75333794913259" lon="11.970369344918511" /><trkpt lat="51.7532932" lon="11.9703152" /><trkpt lat="51.753293" lon="11.970315" /><trkpt lat="51.753204" lon="11.970281" /><trkpt lat="51.751423" lon="11.970791" /><trkpt lat="51.75143881636501" lon="11.970957488052747" /><trkpt lat="51.75143881636501" lon="11.970957488052747" /><trkpt lat="51.751423" lon="11.970791" /><trkpt lat="51.751423" lon="11.970791" /><trkpt lat="51.750278" lon="11.97112" /><trkpt lat="51.750191" lon="11.971116" /><trkpt lat="51.749899" lon="11.97224" /><trkpt lat="51.74987703461796" lon="11.972324383675994" /><trkpt lat="51.74987703461796" lon="11.972324383675994" /><trkpt lat="51.749659" lon="11.973162" /><trkpt lat="51.750113" lon="11.973318" /><trkpt lat="51.750435" lon="11.973365" /><trkpt lat="51.750579" lon="11.973409" /><trkpt lat="51.7505794" lon="11.9734088" /><trkpt lat="51.75065775930623" lon="11.973444438415239" /><trkpt lat="51.75065775930623" lon="11.973444438415239" /><trkpt lat="51.7505794" lon="11.9734088" /><trkpt lat="51.750579" lon="11.973409" /><trkpt lat="51.750749" lon="11.973504" /><trkpt lat="51.750816" lon="11.973425" /><trkpt lat="51.750849" lon="11.973385" /><trkpt lat="51.751157" lon="11.973316" /><trkpt lat="51.75130665360762" lon="11.973264410009909" /><trkpt lat="51.75130665360762" lon="11.973264410009909" /><trkpt lat="51.751508" lon="11.973195" /><trkpt lat="51.751539" lon="11.973382" /><trkpt lat="51.751554" lon="11.973655" /><trkpt lat="51.751562" lon="11.974133" /><trkpt lat="51.751562" lon="11.974133" /><trkpt lat="51.751544" lon="11.974411" /><trkpt lat="51.751577" lon="11.975279" /><trkpt lat="51.751673" lon="11.976251" /><trkpt lat="51.751658" lon="11.9761106" /><trkpt lat="51.75150295370718" lon="11.976103507903549" /><trkpt lat="51.75150295370718" lon="11.976103507903549" /><trkpt lat="51.751658" lon="11.9761106" /><trkpt lat="51.751673" lon="11.976251" /><trkpt lat="51.751689" lon="11.976397" /><trkpt lat="51.7516893" lon="11.9763969" /><trkpt lat="51.751732355293974" lon="11.976469792709883" /><trkpt lat="51.751732355293974" lon="11.976469792709883" /><trkpt lat="51.7517336" lon="11.9764719" /><trkpt lat="51.751734" lon="11.976472" /><trkpt lat="51.751813" lon="11.976501" /><trkpt lat="51.751896" lon="11.976499" /><trkpt lat="51.75231384985803" lon="11.976491669300735" /><trkpt lat="51.75231384985803" lon="11.976491669300735" /><trkpt lat="51.752352" lon="11.976491" /><trkpt lat="51.752356" lon="11.976514" /><trkpt lat="51.752317" lon="11.97626" /><trkpt lat="51.752292" lon="11.975588" /><trkpt lat="51.752323" lon="11.97543" /><trkpt lat="51.752314" lon="11.975141" /><trkpt lat="51.752267" lon="11.974937" /><trkpt lat="51.7522686" lon="11.9749305" /><trkpt lat="51.75226509592908" lon="11.974916219058391" /><trkpt lat="51.7522355" lon="11.9747956" /><trkpt lat="51.752236" lon="11.974796" /><trkpt lat="51.751918" lon="11.974295" /><trkpt lat="51.751784" lon="11.974046" /><trkpt lat="51.751745" lon="11.974007" /><trkpt lat="51.751634" lon="11.974022" /><trkpt lat="51.751603" lon="11.974045" /><trkpt lat="51.751562" lon="11.974133" /><trkpt lat="51.751562" lon="11.974133" /><trkpt lat="51.751544" lon="11.974411" /><trkpt lat="51.751545716167705" lon="11.974456140411077" /></trkseg></trk></gpx>